{
    "links": {
        "self": "http://www.neowsapp.com/rest/v1/neo/3712946?api_key=iIulBulltgU6a56xZRHN4H3l9WmuAYTsLGpBGhQ2"
    },
    "id": "3712946",
    "neo_reference_id": "3712946",
    "name": "(2015 EP)",
    "designation": "2015 EP",
    "nasa_jpl_url": "http://ssd.jpl.nasa.gov/sbdb.cgi?sstr=3712946",
    "absolute_magnitude_h": 26.0,
    "estimated_diameter": {
        "kilometers": {
            "estimated_diameter_min": 0.0167708462,
            "estimated_diameter_max": 0.0375007522
        },
        "meters": {
            "estimated_diameter_min": 16.7708462163,
            "estimated_diameter_max": 37.5007521798
        },
        "miles": {
            "estimated_diameter_min": 0.0104209175,
            "estimated_diameter_max": 0.0233018799
        },
        "feet": {
            "estimated_diameter_min": 55.0224631002,
            "estimated_diameter_max": 123.0339677816
        }
    },
    "is_potentially_hazardous_asteroid": false,
    "close_approach_data": [
        {
            "close_approach_date": "1989-01-26",
            "close_approach_date_full": "1989-Jan-26 10:00",
            "epoch_date_close_approach": 601812000000,
            "relative_velocity": {
                "kilometers_per_second": "16.4158620709",
                "kilometers_per_hour": "59097.1034552328",
                "miles_per_hour": "36720.6418663917"
            },
            "miss_distance": {
                "astronomical": "0.3372138191",
                "lunar": "131.1761756299",
                "kilometers": "50446469.071925317",
                "miles": "31345982.3487786946"
            },
            "orbiting_body": "Earth"
        },
        {
            "close_approach_date": "2015-03-13",
            "close_approach_date_full": "2015-Mar-13 18:22",
            "epoch_date_close_approach": 1426270920000,
            "relative_velocity": {
                "kilometers_per_second": "6.0183887948",
                "kilometers_per_hour": "21666.1996612995",
                "miles_per_hour": "13462.5338951002"
            },
            "miss_distance": {
                "astronomical": "0.0179478446",
                "lunar": "6.9817115494",
                "kilometers": "2684959.323251002",
                "miles": "1668356.3607557476"
            },
            "orbiting_body": "Earth"
        }
    ],
    "orbital_data": {
        "orbit_id": "9",
        "orbit_determination_date": "2017-04-06 08:35:14",
        "first_observation_date": "2015-03-10",
        "last_observation_date": "2015-03-19",
        "data_arc_in_days": 9,
        "observations_used": 55,
        "orbit_uncertainty": "7",
        "minimum_orbit_intersection": ".0179634",
        "jupiter_tisserand_invariant": "3.819",
        "epoch_osculation": "2459000.5",
        "eccentricity": ".4647159316013798",
        "semi_major_axis": "1.890833400146822",
        "inclination": "1.426438531222403",
        "ascending_node_longitude": "343.9460606958225",
        "orbital_period": "949.6822581557591",
        "perihelion_distance": "1.012132995094587",
        "perihelion_argument": "190.2889912660357",
        "aphelion_distance": "2.769533805199057",
        "perihelion_time": "2458995.793291807426",
        "mean_anomaly": "1.784191433266571",
        "mean_motion": ".3790741554960751",
        "equinox": "J2000",
        "orbit_class": {
            "orbit_class_type": "APO",
            "orbit_class_description": "Near-Earth asteroid orbits which cross the Earth’s orbit similar to that of 1862 Apollo",
            "orbit_class_range": "a (semi-major axis) > 1.0 AU; q (perihelion) < 1.017 AU"
        }
    },
    "is_sentry_object": false
}